STARLINK-1816           
1 46714U 20073AW  24330.06145939  .00002023  00000+0  15464-3 0  9992
2 46714  53.0539 189.8583 0001518  98.3282 261.7879 15.06406145226820
STARLINK-1817           
1 46715U 20073AX  24329.72604176  .00006329  00000+0  44321-3 0  9994
2 46715  53.0528 191.3662 0001722  87.3768 272.7418 15.06416486226290
STARLINK-1818           
1 46716U 20073AY  24329.91667824  .00005294  00000+0  24559-3 0  9996
2 46716  53.0555 202.7286 0000848 105.8090 121.0119 15.21630273226633
STARLINK-1820           
1 46717U 20073AZ  24329.67812744  .00004395  00000+0  31371-3 0  9994
2 46717  53.0541 191.5770 0001429 105.6664 254.4483 15.06402133226284
STARLINK-1821           
1 46718U 20073BA  24328.92666543  .00009498  00000+0  65558-3 0  9999
2 46718  53.0541 209.9983 0001150 107.1331 252.9784 15.06404373225963
STARLINK-1822           
1 46719U 20073BB  24330.16640539 -.00038224  00000+0 -25631-2 0  9994
2 46719  53.0529 169.3842 0001369 134.0842 226.0260 15.06370160227128
STARLINK-1826           
1 46723U 20073BF  24328.97457205  .00000079  00000+0  24212-4 0  9992
2 46723  53.0527 169.7411 0000712 105.8251 254.2817 15.06394366226537
STARLINK-1828           
1 46725U 20073BH  24330.03980348  .00012602  00000+0  86259-3 0  9996
2 46725  53.0532 204.9550 0001398  95.0832 265.0317 15.06435791226619
STARLINK-1829           
1 46726U 20073BJ  24329.91667824  .00988341  00000+0  30790-1 0  9992
2 46726  53.0487 189.0456 0001329  79.4221 228.8253 15.30154523  5854
STARLINK-1830           
1 46727U 20073BK  24329.95501788  .00006321  00000+0  44263-3 0  9994
2 46727  53.0536 165.3336 0001501  97.2700 262.8460 15.06418645227165
STARLINK-1848           
1 46740U 20074B   24330.11444866  .00012677  00000+0  86818-3 0  9996
2 46740  53.0550 274.6202 0001645  95.7943 264.3234 15.06410954225847
STARLINK-1865           
1 46741U 20074C   24329.91667824  .01206730  00000+0  19691-1 0  9993
2 46741  53.0518 267.4105 0001390 110.0583 309.8516 15.49351212225927
STARLINK-1892           
1 46743U 20074E   24330.05776933  .00019373  00000+0  13148-2 0  9990
2 46743  53.0536 269.8790 0000976  81.2347 278.8753 15.06431404225913
STARLINK-1894           
1 46744U 20074F   24329.83665698  .00018671  00000+0  12688-2 0  9998
2 46744  53.0539 271.1381 0001371  88.8552 271.2594 15.06406552225859
STARLINK-1905           
1 46746U 20074H   24329.42748698 -.00001820  00000+0 -10339-3 0  9999
2 46746  53.0539 272.7043 0001143 125.7192 234.3903 15.06379979225790
STARLINK-1908           
1 46747U 20074J   24329.91667824  .01192789  00000+0  18718-1 0  9996
2 46747  53.0518 267.3594 0001410 112.8940 295.1559 15.50495935225921
STARLINK-1910           
1 46748U 20074K   24329.91667824  .00190344  00000+0  34687-2 0  9995
2 46748  53.0522 260.9828 0001608 111.1020 280.2863 15.48291541226014
STARLINK-1911           
1 46749U 20074L   24330.08727678  .00023019  00000+0  15585-2 0  9990
2 46749  53.0540 269.7509 0002393  43.0096 317.1080 15.06415979225912
STARLINK-1920           
1 46751U 20074N   24329.91667824  .00150317  00000+0  45063-2 0  9995
2 46751  53.0546 264.7572 0001411 105.9262 149.0148 15.33438102225964
STARLINK-1921           
1 46752U 20074P   24330.25001157  .00531714  00000+0  15066-1 0  9999
2 46752  53.0573 266.7199 0001050  79.3300 145.6764 15.33537134225969
STARLINK-1922           
1 46753U 20074Q   24330.06146109  .00001347  00000+0  10927-3 0  9993
2 46753  53.0545 269.8628 0001485 103.7197 256.3957 15.06407773225912
STARLINK-1923           
1 46754U 20074R   24330.03324579  .00914547  42944-3  14834-2 0  9992
2 46754  53.0410 242.3819 0009299 135.4096 224.7684 16.02795888226284
STARLINK-1924           
1 46755U 20074S   24330.07390214  .00016021  00000+0  10911-2 0  9991
2 46755  53.0549 274.8013 0001630 110.9678 249.1485 15.06430892225844
STARLINK-1925           
1 46756U 20074T   24330.12981381  .00098116  00000+0  20892-2 0  9993
2 46756  53.0540 271.7153 0001434  93.5591 266.5579 15.44169203225887
STARLINK-1928           
1 46758U 20074V   24329.25932066  .00002047  00000+0  15635-3 0  9991
2 46758  53.0540 278.4595 0001294  94.5865 265.5272 15.06384915225721
STARLINK-1833           
1 46759U 20074W   24330.11721103  .00015907  00000+0  10841-2 0  9999
2 46759  53.0548 284.6130 0001841  83.8066 276.3133 15.06408897225425
STARLINK-1896           
1 46760U 20074X   24330.25001157  .00589759  00000+0  15354-1 0  9990
2 46760  53.0545 281.5878 0001136  89.0148  19.8734 15.36337711225768
STARLINK-1903           
1 46764U 20074AB  24329.27183547  .00064551  00000+0  38219-2 0  9992
2 46764  53.0513 287.8494 0004807 100.3363 259.8170 15.10825355225571
STARLINK-1906           
1 46765U 20074AC  24330.25001157  .00712673  00000+0  12849-1 0  9994
2 46765  53.0510 279.9895 0001332  98.8088 205.8850 15.46989351225483
STARLINK-1916           
1 46766U 20074AD  24330.10246341  .00025109  00000+0  16968-2 0  9993
2 46766  53.0543 284.6763 0001520  84.1084 276.0079 15.06437978225426
STARLINK-1917           
1 46767U 20074AE  24330.25001157  .00364600  00000+0  13028-1 0  9999
2 46767  53.0477 282.3677 0001125 107.3472 301.4859 15.26755374225752
STARLINK-1918           
1 46768U 20074AF  24329.91667824  .00456034  00000+0  57379-2 0  9991
2 46768  53.0460 275.7734 0001177 114.2060  66.0895 15.57580750  5929
STARLINK-1932           
1 46770U 20074AH  24330.25001157  .00174474  00000+0  60341-2 0  9992
2 46770  53.0560 280.2319 0001636  87.5666 204.1870 15.28719052225779
STARLINK-1936           
1 46772U 20074AK  24330.25001157  .00629454  00000+0  19888-1 0  9996
2 46772  53.0584 282.5803 0001499  72.2512 168.1138 15.30019262225740
STARLINK-1798           
1 46779U 20074AS  24329.91667824  .00517284  00000+0  15368-1 0  9999
2 46779  53.0573 258.6061 0001252  85.6193 224.0195 15.32087393225753
STARLINK-1832           
1 46780U 20074AT  24330.09554179  .00038027  00000+0  25539-2 0  9995
2 46780  53.0540 259.7032 0001532 110.0447 250.0707 15.06460242225763
STARLINK-1834           
1 46781U 20074AU  24330.25001157  .00403381  00000+0  15118-1 0  9997
2 46781  53.0566 267.6263 0001083  79.4999 299.8369 15.24984909225673
STARLINK-1835           
1 46782U 20074AV  24330.08450057  .00014602  00000+0  99682-3 0  9990
2 46782  53.0534 259.7578 0001589  89.6107 270.5064 15.06413166225754
STARLINK-1882           
1 46784U 20074AX  24329.46160612  .00018207  00000+0  12383-2 0  9994
2 46784  53.0551 262.7862 0001161  98.3286 261.7835 15.06391264225938
STARLINK-1883           
1 46785U 20074AY  24330.25001157  .00973271  00000+0  28949-1 0  9997
2 46785  53.0492 257.6881 0000898 103.6670  16.1507 15.31692466225754
STARLINK-1893           
1 46786U 20074AZ  24329.20540712  .00024677  00000+0  16706-2 0  9992
2 46786  53.0531 243.7040 0000508  95.6098 264.4949 15.06380911225865
STARLINK-1929           
1 46788U 20074BB  24329.91667824  .00498566  00000+0  15196-1 0  9999
2 46788  53.0532 238.4950 0001081  81.2614 214.3427 15.31345833  5640
STARLINK-1930           
1 46789U 20074BC  24329.91667824  .01194622  00000+0  17328-1 0  9996
2 46789  53.0502 267.3308 0001298 114.4293   7.9169 15.52705405  5780
STARLINK-1931           
1 46790U 20074BD  24330.10567967  .00020427  00000+0  13849-2 0  9993
2 46790  53.0539 269.6631 0001727  90.2824 269.8363 15.06436995225574
STARLINK-1933           
1 46791U 20074BE  24330.25001157  .00623040  00000+0  93592-2 0  9997
2 46791  53.0562 260.4791 0001071 107.0707 287.6576 15.52129770225717
STARLINK-1934           
1 46792U 20074BF  24330.08080513  .00018484  00000+0  12560-2 0  9998
2 46792  53.0543 259.7727 0001453 100.6974 259.4178 15.06416826225711
STARLINK-1941           
1 46793U 20074BG  24329.91667824  .00207094  00000+0  84418-2 0  9993
2 46793  53.0576 268.4998 0001503 102.5198 249.0928 15.23094272  5608
STARLINK-1942           
1 46794U 20074BH  24329.25424814  .00021336  00000+0  14472-2 0  9997
2 46794  53.0536 273.4793 0001549  98.9929 261.1235 15.06392608225777
STARLINK-1944           
1 46796U 20074BK  24330.09186750  .00032826  00000+0  22095-2 0  9993
2 46796  53.0542 259.7243 0001586  97.8234 262.2935 15.06448295225718
STARLINK-1948           
1 46798U 20074BM  24330.25001157  .00423110  00000+0  14506-1 0  9997
2 46798  53.0476 282.4397 0001208 103.9645 313.1473 15.27852546225472
STARLINK-1777           
1 47122U 20088A   24329.81266091  .00004528  00000+0  32277-3 0  9999
2 47122  53.0551 250.9774 0001762 105.9895 254.1288 15.06388799221016
STARLINK-1785           
1 47124U 20088C   24329.91667824  .00320539  00000+0  10057-1 0  9994
2 47124  53.0474 252.9126 0000985 104.0009  72.2213 15.31205656221305
STARLINK-1812           
1 47126U 20088E   24330.10384970  .00017819  00000+0  12114-2 0  9998
2 47126  53.0549 249.6700 0001635  94.2563 265.8612 15.06421909221361
STARLINK-1837           
1 47128U 20088G   24330.25001157  .00694692  00000+0  56911-2 0  9992
2 47128  53.0491 217.1741 0000672 105.2613 106.5370 15.67836222221821
STARLINK-1838           
1 47129U 20088H   24330.25001157  .00315418  00000+0  14023-1 0  9996
2 47129  53.0532 236.4610 0001089  97.1986 288.5487 15.19595834221561
STARLINK-1843           
1 47133U 20088M   24329.41919146  .00015041  00000+0  10267-2 0  9999
2 47133  53.0539 242.7432 0001321 100.6273 259.4865 15.06393362221096
STARLINK-1845           
1 47135U 20088P   24330.07528495  .00022028  00000+0  14921-2 0  9992
2 47135  53.0538 239.7971 0001626  98.4254 261.6919 15.06424967221509
STARLINK-1846           
1 47136U 20088Q   24329.91667824  .00346231  00000+0  11721-1 0  9993
2 47136  53.0462 248.5135 0001125 113.7927  55.6178 15.28619819221355
STARLINK-1849           
1 47137U 20088R   24329.99050955  .00031523  00000+0  21237-2 0  9992
2 47137  53.0539 240.1768 0001451  82.6878 277.4276 15.06434784221481
STARLINK-1850           
1 47138U 20088S   24329.83334491  .00162387  00000+0  67560-2 0  9998
2 47138  53.0533 244.2273 0001300 116.2368  62.7366 15.22625366  5844
